{
  "norad_id": 65682,
  "name": "STARLINK-35235",
  "history": [
    {
      "epoch": "2026-03-28T19:05:31.080768Z",
      "apogee_km": 475.705034896765,
      "perigee_km": 474.6729240042596,
      "latitude_deg": 3.3338523924505293e-05,
      "longitude_deg": 143.9872065340248,
      "height_km": 475.7856817423835,
      "semi_major_axis_km": 6853.325979450512,
      "eccentricity": 7.53e-05,
      "inclination_deg": 53.1604,
      "raan_deg": 256.5775,
      "arg_perigee_deg": 54.1419,
      "mean_anomaly_deg": 305.9652,
      "mean_motion_rev_day": 15.30208738
    },
    {
      "epoch": "2026-03-29T04:29:50.519328Z",
      "apogee_km": 476.1392087759077,
      "perigee_km": 474.23946671508384,
      "latitude_deg": 4.9129635081011126e-05,
      "longitude_deg": 0.6992582808755469,
      "height_km": 476.049061782782,
      "semi_major_axis_km": 6853.326337745495,
      "eccentricity": 0.0001386,
      "inclination_deg": 53.1584,
      "raan_deg": 254.7568,
      "arg_perigee_deg": 87.7062,
      "mean_anomaly_deg": 272.4098,
      "mean_motion_rev_day": 15.30208618
    }
  ]
}